NORAD_CAT_ID,OBJECT_NAME,OBJECT_TYPE,EPOCH,MEAN_MOTION,ECCENTRICITY,INCLINATION,RA_OF_ASC_NODE,ARG_OF_PERICENTER,MEAN_ANOMALY,BSTAR,MEAN_MOTION_DOT,MEAN_MOTION_DDOT,TLE_LINE0,TLE_LINE1,TLE_LINE2,SEMIMAJOR_AXIS,PERIOD,APOGEE,PERIGEE,DECAYED
53553.0,STARLINK-4501,PAYLOAD,2022-08-24 14:00:01,15.89958674,0.0039419,53.2174,131.39700000000002,56.2139,42.5817,-0.0039299999999999,-0.01288464,0.00047552,0 STARLINK-4501,1 53553U 22101AC  22236.58334491 -.01288464  47552-3 -39300-2 0  9997,2 53553  53.2174 131.3970 0039419  56.2139  42.5817 15.89958674   774,6680.536,90.568,328.735,276.067,0.0
53553.0,STARLINK-4501,PAYLOAD,2022-08-25 04:00:00,15.88465042,0.0033275999999999,53.2173,128.444,57.7163,140.3718,-0.004507,-0.01340113,0.00050373,0 STARLINK-4501,1 53553U 22101AC  22237.16667824 -.01340113  50373-3 -45070-2 0  9997,2 53553  53.2173 128.4440 0033276  57.7163 140.3718 15.88465042   868,6684.723000000001,90.654,328.832,284.344,0.0
53553.0,STARLINK-4501,PAYLOAD,2022-08-25 12:00:00,15.87609756,0.0029543,53.2175,126.7557,57.9945,246.83,-0.0048516,-0.01367067,0.00051826,0 STARLINK-4501,1 53553U 22101AC  22237.50001157 -.01367067  51826-3 -48516-2 0  9995,2 53553  53.2175 126.7557 0029543  57.9945 246.8300 15.87609756   918,6687.123000000001,90.702,328.744,289.233,0.0
53553.0,STARLINK-4501,PAYLOAD,2022-08-25 14:00:01,15.87358864,0.0028778,53.2174,126.3339,57.5699,3.7892,-0.0046714,-0.01298089,0.0004705,0 STARLINK-4501,1 53553U 22101AC  22237.58334491 -.01298089  47050-3 -46714-2 0  9992,2 53553  53.2174 126.3339 0028778  57.5699   3.7892 15.87358864  1303,6687.828,90.717,328.939,290.447,0.0
53553.0,STARLINK-4501,PAYLOAD,2022-08-25 18:00:00,15.86945211,0.002657,53.2175,125.4927,57.9912,236.2095,-0.0049667999999999,-0.01344406,0.00049966,0 STARLINK-4501,1 53553U 22101AC  22237.75001157 -.01344406  49966-3 -49668-2 0  9995,2 53553  53.2175 125.4927 0026570  57.9912 236.2095 15.86945211   952,6688.99,90.74,328.6280000000001,293.082,0.0
53553.0,STARLINK-4501,PAYLOAD,2022-08-25 22:00:00,15.86506122,0.0025031,53.2176,124.6523,57.0253,109.7625,-0.0050321,-0.01328462,0.00048696,0 STARLINK-4501,1 53553U 22101AC  22237.91667824 -.01328462  48696-3 -50321-2 0  9993,2 53553  53.2176 124.6523 0025031  57.0253 109.7625 15.86506122  1303,6690.224,90.765,328.836,295.343,0.0
53553.0,STARLINK-4501,PAYLOAD,2022-08-26 12:00:00,15.85009924,0.001943,53.2174,121.7104,58.0049,200.7778,-0.0056657,-0.01212216,0.0,0 STARLINK-4501,1 53553U 22101AC  22238.50001157 -.01212216  00000-0 -56657-2 0  9991,2 53553  53.2174 121.7104 0019430  58.0049 200.7778 15.85009924  1076,6694.434,90.851,329.306,303.2920000000001,0.0
53553.0,STARLINK-4501,PAYLOAD,2022-08-26 14:00:01,15.84767618,0.001852,53.2172,121.2902,57.197,317.4011,-0.0055291,-0.01172256,0.0,0 STARLINK-4501,1 53553U 22101AC  22238.58335648 -.01172256  00000-0 -55291-2 0  9996,2 53553  53.2172 121.2902 0018520  57.1970 317.4011 15.84767618  1309,6695.116,90.865,329.381,304.582,0.0
53553.0,STARLINK-4501,PAYLOAD,2022-08-26 22:00:00,15.83891927,0.0015529,53.2172,119.6153,56.4077,60.4315,-0.0057073,-0.01155366,0.0,0 STARLINK-4501,1 53553U 22101AC  22238.91667824 -.01155366  00000-0 -57073-2 0  9990,2 53553  53.2172 119.6153 0015529  56.4077  60.4315 15.83891927  1306,6697.584,90.915,329.849,309.048,0.0
53553.0,STARLINK-4501,PAYLOAD,2022-08-27 14:00:01,15.82181975,0.0009125,53.2175,116.2659,53.4464,264.869,-0.0064952,-0.01217777,0.0,0 STARLINK-4501,1 53553U 22101AC  22239.58334491 -.01217777  00000-0 -64952-2 0  9994,2 53553  53.2175 116.2659 0009125  53.4464 264.8690 15.82181975  1305,6702.408,91.014,330.389,318.157,0.0
53553.0,STARLINK-4501,PAYLOAD,2022-08-27 20:00:01,15.81534032,0.0006476,53.2176,115.0144,46.9735,255.8205,-0.0067328999999999,-0.01220729,0.0,0 STARLINK-4501,1 53553U 22101AC  22239.83334491 -.01220729  00000-0 -67329-2 0  9994,2 53553  53.2176 115.0144 0006476  46.9735 255.8205 15.81534032  1280,6704.239000000001,91.051,330.446,321.762,0.0
53553.0,STARLINK-4501,PAYLOAD,2022-08-27 22:00:00,15.81292207,0.000587,53.2176,114.5975,41.9981,15.5003,-0.0065448,-0.01177762,0.0,0 STARLINK-4501,1 53553U 22101AC  22239.91667824 -.01177762  00000-0 -65448-2 0  9990,2 53553  53.2176 114.5975 0005870  41.9981  15.5003 15.81292207  1306,6704.922,91.065,330.723,322.8520000000001,0.0
53553.0,STARLINK-4501,PAYLOAD,2022-08-28 14:00:01,15.79570155,0.0002883,53.2172,111.2608,11.9073,240.8127,-0.0072503999999999,-0.01199241,0.0,0 STARLINK-4501,1 53553U 22101AC  22240.58334491 -.01199241  00000-0 -72504-2 0  9993,2 53553  53.2172 111.2608 0002883  11.9073 240.8127 15.79570155  1307,6709.795,91.164,333.594,329.725,0.0
53553.0,STARLINK-4501,PAYLOAD,2022-08-28 20:00:01,15.78917505,0.0002644,53.2174,110.0143,13.1409,221.7123,-0.0074438,-0.01195241,0.0,0 STARLINK-4501,1 53553U 22101AC  22240.83334491 -.01195241  00000-0 -74438-2 0  9995,2 53553  53.2174 110.0143 0002644  13.1409 221.7123 15.78917505  1444,6711.644,91.202,335.283,331.7340000000001,0.0
53553.0,STARLINK-4501,PAYLOAD,2022-08-28 22:00:00,15.78702417,0.0002703,53.2173,109.5988,10.2547,338.5119,-0.0075417,-0.01198725,0.0,0 STARLINK-4501,1 53553U 22101AC  22240.91667824 -.01198725  00000-0 -75417-2 0  9991,2 53553  53.2173 109.5988 0002703  10.2547 338.5119 15.78702417  1301,6712.253000000002,91.214,335.932,332.3040000000001,0.0
53553.0,STARLINK-4501,PAYLOAD,2022-08-29 12:00:00,15.77186224,0.0003292,53.2176,106.6901,344.4552,79.8861,-0.0081111,-0.01203479,0.0,0 STARLINK-4501,1 53553U 22101AC  22241.50001157 -.01203479  00000-0 -81111-2 0  9999,2 53553  53.2176 106.6901 0003292 344.4552  79.8861 15.77186224  1556,6716.554,91.302,340.63,336.208,0.0
53553.0,STARLINK-4501,PAYLOAD,2022-08-29 14:00:01,15.76966144,0.0003269,53.2175,106.2751,355.1032,182.6316,-0.0081461,-0.01197517,0.0,0 STARLINK-4501,1 53553U 22101AC  22241.58334491 -.01197517  00000-0 -81461-2 0  9990,2 53553  53.2175 106.2751 0003269 355.1032 182.6316 15.76966144  1307,6717.179,91.315,341.24,336.848,0.0
53553.0,STARLINK-4501,PAYLOAD,2022-08-29 22:00:00,15.76085756,0.0003788,53.2175,104.6196,328.7252,301.9317,-0.0083076,-0.01177059,0.0,0 STARLINK-4501,1 53553U 22101AC  22241.91667824 -.01177059  00000-0 -83076-2 0  9999,2 53553  53.2175 104.6196 0003788 328.7252 301.9317 15.76085756  1306,6719.68,91.366,344.091,339.0,0.0
53553.0,STARLINK-4501,PAYLOAD,2022-08-30 06:00:00,15.75229462,0.0004203,53.2172,102.9633,326.4216,36.107,-0.0087712,-0.01194584,0.0,0 STARLINK-4501,1 53553U 22101AC  22242.25001157 -.01194584  00000-0 -87712-2 0  9991,2 53553  53.2172 102.9633 0004203 326.4216  36.1070 15.75229462  1663,6722.115,91.415,346.806,341.155,0.0
53553.0,STARLINK-4501,PAYLOAD,2022-08-30 14:00:01,15.74388443,0.000127,53.2168,101.3091,21.5445,71.7743,-0.0087123,-0.01147396,0.0,0 STARLINK-4501,1 53553U 22101AC  22242.58334491 -.01147396  00000-0 -87123-2 0  9992,2 53553  53.2168 101.3091 0001270  21.5445  71.7743 15.74388443  1720,6724.509,91.464,347.228,345.52,0.0
53553.0,STARLINK-4501,PAYLOAD,2022-08-30 20:00:01,15.73581998,0.0001682,53.2174,100.0716,40.324,30.4912,-0.0036623,-0.00493653,0.0,0 STARLINK-4501,1 53553U 22101AC  22242.83334491 -.00493653  00000-0 -36623-2 0  9998,2 53553  53.2174 100.0716 0001682  40.3240  30.4912 15.73581998  1769,6726.806,91.511,349.80300000000005,347.54,0.0
53553.0,STARLINK-4501,PAYLOAD,2022-08-30 22:00:00,15.73459207,0.0001252999999999,53.2171,99.6604,60.4886,122.6436,-0.0025698,-0.00350532,0.0,0 STARLINK-4501,1 53553U 22101AC  22242.91667824 -.00350532  00000-0 -25698-2 0  9994,2 53553  53.2171  99.6604 0001253  60.4886 122.6436 15.73459207  1300,6727.156,91.518,349.86400000000015,348.17800000000005,0.0
53553.0,STARLINK-4501,PAYLOAD,2022-08-31 12:00:00,15.73213614,0.0001343,53.216,96.7744,67.6013,181.3861,0.00053003,0.00074472,0.0,0 STARLINK-4501,1 53553U 22101AC  22243.50001157  .00074472  00000-0  53003-3 0  9997,2 53553  53.2160  96.7744 0001343  67.6013 181.3861 15.73213614  1867,6727.856,91.532,350.625,348.8180000000001,0.0
53553.0,STARLINK-4501,PAYLOAD,2022-08-31 14:00:01,15.73255459,0.0001391,53.2162,96.3612,69.5488,291.6695,8.5836e-06,5.87e-06,0.0,0 STARLINK-4501,1 53553U 22101AC  22243.58334491  .00000587  00000-0  85836-5 0  9992,2 53553  53.2162  96.3612 0001391  69.5488 291.6695 15.73255459  1312,6727.736999999999,91.53,350.538,348.666,0.0
53553.0,STARLINK-4501,PAYLOAD,2022-08-31 20:00:01,15.73235017,0.0001323,53.2158,95.1267,59.3855,278.5535,-0.0006602,-0.00092402,0.0,0 STARLINK-4501,1 53553U 22101AC  22243.83334491 -.00092402  00000-0 -66020-3 0  9991,2 53553  53.2158  95.1267 0001323  59.3855 278.5535 15.73235017  1911,6727.795,91.531,350.55,348.77,0.0
53553.0,STARLINK-4501,PAYLOAD,2022-08-31 22:00:00,15.73208603,0.0001323,53.2158,94.7149,56.0621,34.1203,-0.00048904,-0.0006872,0.0,0 STARLINK-4501,1 53553U 22101AC  22243.91667824 -.00068720  00000-0 -48904-3 0  9996,2 53553  53.2158  94.7149 0001323  56.0621  34.1203 15.73208603  1302,6727.871,91.533,350.626,348.846,0.0
53553.0,STARLINK-4501,PAYLOAD,2022-09-01 12:00:00,15.73062215,0.0001158,53.2155,91.8259,67.0702,88.7,0.0011284,0.00159845,0.0,0 STARLINK-4501,1 53553U 22101AC  22244.50001157  .00159845  00000-0  11284-2 0  9990,2 53553  53.2155  91.8259 0001158  67.0702  88.7000 15.73062215  2024,6728.288000000001,91.541,350.932,349.374,0.0
53553.0,STARLINK-4501,PAYLOAD,2022-09-01 14:00:01,15.73095197,0.0001231999999999,53.2159,91.4138,68.4915,199.5362,0.0009496,0.00134194,0.0,0 STARLINK-4501,1 53553U 22101AC  22244.58335648  .00134194  00000-0  94960-3 0  9996,2 53553  53.2159  91.4138 0001232  68.4915 199.5362 15.73095197  1301,6728.194,91.539,350.88800000000015,349.23,0.0
53553.0,STARLINK-4501,PAYLOAD,2022-09-01 20:00:01,15.73179486,0.0001424,53.2158,90.1786,61.0728,183.5873,0.00011428,0.00015434,0.0,0 STARLINK-4501,1 53553U 22101AC  22244.83335648  .00015434  00000-0  11428-3 0  9997,2 53553  53.2158  90.1786 0001424  61.0728 183.5873 15.73179486  2078,6727.954000000002,91.534,350.777,348.861,0.0
